[{"OBJECT_NAME":"COSMOS 1408 DEB","OBJECT_ID":"1982-092RU","EPOCH":"2026-04-05T14:32:05.199072","MEAN_MOTION":15.47073595,"ECCENTRICITY":0.0016044,"INCLINATION":82.5606,"RA_OF_ASC_NODE":301.6804,"ARG_OF_PERICENTER":154.1191,"MEAN_ANOMALY":206.0865,"EPHEMERIS_TYPE":0,"CLASSIFICATION_TYPE":"U","NORAD_CAT_ID":50032,"ELEMENT_SET_NO":999,"REV_AT_EPOCH":24363,"BSTAR":0.00011779,"MEAN_MOTION_DOT":6.03e-5,"MEAN_MOTION_DDOT":0},{"OBJECT_NAME":"COSMOS 1408 DEB","OBJECT_ID":"1982-092SW","EPOCH":"2026-04-05T14:46:00.160896","MEAN_MOTION":15.74059822,"ECCENTRICITY":0.0012687,"INCLINATION":82.6073,"RA_OF_ASC_NODE":309.3269,"ARG_OF_PERICENTER":35.5984,"MEAN_ANOMALY":324.6124,"EPHEMERIS_TYPE":0,"CLASSIFICATION_TYPE":"U","NORAD_CAT_ID":50058,"ELEMENT_SET_NO":999,"REV_AT_EPOCH":24589,"BSTAR":0.00038094,"MEAN_MOTION_DOT":0.00054757,"MEAN_MOTION_DDOT":0},{"OBJECT_NAME":"COSMOS 1408 DEB","OBJECT_ID":"1982-092ADS","EPOCH":"2026-04-05T10:23:38.850720","MEAN_MOTION":15.43661843,"ECCENTRICITY":0.0104864,"INCLINATION":82.1892,"RA_OF_ASC_NODE":96.2255,"ARG_OF_PERICENTER":159.7977,"MEAN_ANOMALY":200.747,"EPHEMERIS_TYPE":0,"CLASSIFICATION_TYPE":"U","NORAD_CAT_ID":50404,"ELEMENT_SET_NO":999,"REV_AT_EPOCH":22928,"BSTAR":0.0040784,"MEAN_MOTION_DOT":0.00230979,"MEAN_MOTION_DDOT":0},{"OBJECT_NAME":"COSMOS 1408 DEB","OBJECT_ID":"1982-092ALR","EPOCH":"2026-04-05T15:23:29.026752","MEAN_MOTION":15.64458125,"ECCENTRICITY":0.002469,"INCLINATION":82.5661,"RA_OF_ASC_NODE":314.9378,"ARG_OF_PERICENTER":88.8743,"MEAN_ANOMALY":271.5345,"EPHEMERIS_TYPE":0,"CLASSIFICATION_TYPE":"U","NORAD_CAT_ID":50621,"ELEMENT_SET_NO":999,"REV_AT_EPOCH":24026,"BSTAR":0.00039185,"MEAN_MOTION_DOT":0.00038344,"MEAN_MOTION_DDOT":0}]
